{
    "links": {
        "self": "http://www.neowsapp.com/rest/v1/neo/3308948?api_key=iIulBulltgU6a56xZRHN4H3l9WmuAYTsLGpBGhQ2"
    },
    "id": "3308948",
    "neo_reference_id": "3308948",
    "name": "(2005 YC)",
    "designation": "2005 YC",
    "nasa_jpl_url": "http://ssd.jpl.nasa.gov/sbdb.cgi?sstr=3308948",
    "absolute_magnitude_h": 18.6,
    "estimated_diameter": {
        "kilometers": {
            "estimated_diameter_min": 0.5064714588,
            "estimated_diameter_max": 1.1325046106
        },
        "meters": {
            "estimated_diameter_min": 506.4714588346,
            "estimated_diameter_max": 1132.5046106177
        },
        "miles": {
            "estimated_diameter_min": 0.3147066768,
            "estimated_diameter_max": 0.7037055224
        },
        "feet": {
            "estimated_diameter_min": 1661.651821003,
            "estimated_diameter_max": 3715.566426699
        }
    },
    "is_potentially_hazardous_asteroid": false,
    "close_approach_data": [
        {
            "close_approach_date": "1918-12-23",
            "close_approach_date_full": "1918-Dec-23 03:25",
            "epoch_date_close_approach": -1610224500000,
            "relative_velocity": {
                "kilometers_per_second": "13.1640922958",
                "kilometers_per_hour": "47390.7322648825",
                "miles_per_hour": "29446.7580564766"
            },
            "miss_distance": {
                "astronomical": "0.3982412468",
                "lunar": "154.9158450052",
                "kilometers": "59576042.267424316",
                "miles": "37018836.0787389208"
            },
            "orbiting_body": "Earth"
        },
        {
            "close_approach_date": "1976-12-23",
            "close_approach_date_full": "1976-Dec-23 10:37",
            "epoch_date_close_approach": 220185420000,
            "relative_velocity": {
                "kilometers_per_second": "13.9875682731",
                "kilometers_per_hour": "50355.245783304",
                "miles_per_hour": "31288.7914701869"
            },
            "miss_distance": {
                "astronomical": "0.3817071421",
                "lunar": "148.4840782769",
                "kilometers": "57102575.421947327",
                "miles": "35481895.0498620326"
            },
            "orbiting_body": "Earth"
        },
        {
            "close_approach_date": "2005-12-23",
            "close_approach_date_full": "2005-Dec-23 13:04",
            "epoch_date_close_approach": 1135343040000,
            "relative_velocity": {
                "kilometers_per_second": "12.9016349824",
                "kilometers_per_hour": "46445.8859365115",
                "miles_per_hour": "28859.6672920507"
            },
            "miss_distance": {
                "astronomical": "0.406455406",
                "lunar": "158.111152934",
                "kilometers": "60804862.98758522",
                "miles": "37782389.867787236"
            },
            "orbiting_body": "Earth"
        },
        {
            "close_approach_date": "2046-12-23",
            "close_approach_date_full": "2046-Dec-23 00:55",
            "epoch_date_close_approach": 2429139300000,
            "relative_velocity": {
                "kilometers_per_second": "12.4348141316",
                "kilometers_per_hour": "44765.3308736689",
                "miles_per_hour": "27815.4357309194"
            },
            "miss_distance": {
                "astronomical": "0.4533228412",
                "lunar": "176.3425852268",
                "kilometers": "67816131.465868244",
                "miles": "42138990.0819560072"
            },
            "orbiting_body": "Earth"
        }
    ],
    "orbital_data": {
        "orbit_id": "22",
        "orbit_determination_date": "2019-03-24 11:12:10",
        "first_observation_date": "2005-12-20",
        "last_observation_date": "2018-03-08",
        "data_arc_in_days": 4461,
        "observations_used": 111,
        "orbit_uncertainty": "0",
        "minimum_orbit_intersection": ".40686",
        "jupiter_tisserand_invariant": "2.746",
        "epoch_osculation": "2459000.5",
        "eccentricity": ".6100051096035212",
        "semi_major_axis": "3.243100263211395",
        "inclination": "24.20646297711971",
        "ascending_node_longitude": "296.3858365040128",
        "orbital_period": "2133.23642213787",
        "perihelion_distance": "1.264792531695919",
        "perihelion_argument": "123.6200169510655",
        "aphelion_distance": "5.221407994726869",
        "perihelion_time": "2457939.929209507977",
        "mean_anomaly": "178.9794514170602",
        "mean_motion": ".1687576661752372",
        "equinox": "J2000",
        "orbit_class": {
            "orbit_class_type": "AMO",
            "orbit_class_description": "Near-Earth asteroid orbits similar to that of 1221 Amor",
            "orbit_class_range": "1.017 AU < q (perihelion) < 1.3 AU"
        }
    },
    "is_sentry_object": false
}